ONEWEB-0228             
1 48780U 21045P   24241.12228935  .00000067  00000+0  14378-3 0  9992
2 48780  87.9056  30.1266 0001633  96.4948 263.6368 13.15547384158936
